name|mail|phone|siret|entreprise|street|city|codex|state|pays
Zahir|vel.quam@erosnec.ca|07 47 19 46 44|682842000|Libero Proin Incorporated|961-7144 Luctus Ave|Vienna|724855|Vienna|Trinidad and Tobago
Francis|diam.Proin.dolor@amet.net|09 83 25 31 39|169011921|Integer Sem Elit Incorporated|CP 722, 4676 Donec Rd.|Pallavaram|303818|Tamil Nadu|Reunion
Yasir|ridiculus.mus@feugiat.edu|08 23 07 14 25|167332436|Mi Industries|844-935 Nibh. Route|Hudiksvall|15754|X|Norfolk Island
Joel|at.sem@Integerid.net|08 91 69 54 25|231604471|Eu Tellus LLP|Appartement 113-7412 Lectus. Avenue|Vancouver|827115|WA|United States Minor Outlying Islands
Carson|Nam.nulla@facilisis.org|04 81 45 57 47|003692571|Ac Consulting|Appartement 909-4951 Tincidunt Av.|Saint-Prime|5455|Quebec|Samoa
John|a@risusDonecnibh.net|09 24 30 13 03|605390814|Vitae Aliquet Nec LLC|CP 637, 3375 Eget Ave|Albury|232033|NSW|Belgium
Beau|pellentesque.tellus.sem@Duis.net|01 23 65 98 60|274953108|Leo Vivamus Industries|CP 392, 2160 Congue Chemin|Pachuca|Z0026|Hidalgo|Heard Island and Mcdonald Islands
Seth|risus@loremeget.net|06 37 45 64 03|988927638|Nec Incorporated|355-5665 Mauris Route|Bandar Lampung|278752|LA|Dominica
Carlos|Nunc.commodo.auctor@Suspendisse.co.uk|09 70 71 87 10|535828602|Vestibulum Industries|Appartement 264-9401 At, Impasse|Täby|4239|AB|Senegal
Jackson|nascetur.ridiculus.mus@justoProinnon.edu|05 95 43 83 91|497665463|Ante Vivamus Non Associates|Appartement 911-1584 Posuere Rd.|Vienna|41213|Wie|Maldives
Grant|interdum@sedsapien.com|04 74 49 66 20|686645664|Odio Tristique Pharetra Corp.|CP 111, 523 Arcu Rd.|Le Grand-Quevilly|39607-72082|HA|Czech Republic
Lev|dui.augue@natoquepenatibus.edu|03 79 92 30 49|713639789|Malesuada Consulting|9365 Orci, Avenue|Borås|15068|O|Ukraine
Ignatius|sed.pede.nec@felisegetvarius.co.uk|06 62 93 49 14|458317435|Odio Aliquam Limited|CP 322, 7776 Consequat Impasse|Palu|30912|Central Sulawesi|Pakistan
Kamal|tristique@Suspendisse.com|04 59 67 66 64|986069896|Natoque Penatibus Et Institute|CP 683, 1006 Auctor. Route|Tambov|6948|Tambov Oblast|France
Harper|magna@per.co.uk|07 55 32 36 56|791253255|Donec Associates|5888 Dictum Ave|Acacías|84725|MET|Aruba
Slade|ut.sem.Nulla@loremsitamet.edu|01 84 12 80 28|154834543|Sapien Cras Dolor Ltd|371-8602 Dolor. Avenue|Sabanalarga|594583|ATL|Samoa
Brody|Praesent@Proin.com|05 67 47 17 05|086619327|Fringilla Ornare Corp.|386-9452 Justo Avenue|Lourdes|17581|MB|Ethiopia
Ethan|habitant.morbi@diam.co.uk|07 02 54 30 39|818549511|Auctor Non Feugiat Institute|CP 297, 8730 Id, Rue|Istanbul|857369|Istanbul|Belize
Oleg|Integer.eu@Integermollis.org|02 32 64 19 91|691987846|Congue In Scelerisque PC|9549 Mi Impasse|Kitimat|14658|British Columbia|Christmas Island
Ronan|pede.Praesent.eu@Crasvehicula.com|08 88 03 56 04|390508208|Ultricies Dignissim Lacus LLC|CP 691, 774 Suscipit, Impasse|Rouyn-Noranda|8014|Quebec|India
Ethan|erat.eget.tincidunt@Nullamvitae.co.uk|08 88 42 43 63|519654206|Risus Morbi LLC|245-7018 Erat Route|Kaliningrad|3182|KGD|Bangladesh
Gareth|justo@ullamcorpervelit.ca|05 23 24 17 53|121913388|Morbi Accumsan Laoreet Inc.|Appartement 627-8643 Dui. Rd.|Vehari|V2M 1L5|Punjab|Sao Tome and Principe
Jonah|posuere.cubilia@Aliquamadipiscing.net|05 95 58 07 30|893476051|Mauris Institute|8493 Curabitur Av.|Lakeshore|9989|ON|Andorra
Tarik|dolor@Cumsociis.ca|07 81 29 70 96|949118251|Elementum Purus Accumsan Associates|Appartement 643-3925 Aliquam Impasse|Kaduna|98243|Kaduna|Oman
Nathan|Aliquam.erat@nonquamPellentesque.co.uk|05 66 23 29 53|663940815|Elit Pretium Et Institute|525 Magna Av.|Mauá|50816|São Paulo|Iraq
Jared|sit.amet@Cras.com|01 52 60 61 35|040880247|Morbi Corporation|CP 549, 1343 Dui Rue|Beez|87954|Namen|Palau
Cullen|sagittis@nonlacinia.edu|07 41 93 98 47|318965225|Rutrum Foundation|226-1281 Duis Avenue|Whangarei|40805|NI|Guadeloupe
Kennan|lorem@felisadipiscing.ca|08 99 76 03 99|954739322|Leo Morbi Neque Corp.|CP 744, 6823 Tincidunt Rue|Sevilla|QM7 4JQ|AN|Ethiopia
Thomas|quam.elementum.at@utquam.com|08 34 08 14 05|501332548|Pede Et Risus Foundation|Appartement 751-7879 Netus Avenue|Bremen|H2H 2M9|Bremen|Tanzania
Lev|vitae.sodales@elit.edu|07 58 36 82 54|645929639|Sed Neque Sed Consulting|Appartement 292-6013 Tellus Chemin|Alajuela|4953|A|Djibouti
Jack|arcu.Curabitur@fringilla.org|05 80 60 89 97|306810425|Nisl Maecenas Malesuada Ltd|Appartement 617-577 Mattis Rd.|Dongducheon|OC29 9JB|Gye|Saint Martin
Honorato|laoreet@NullafacilisisSuspendisse.net|08 43 56 55 93|579420621|Aenean Sed Pede Institute|Appartement 141-4080 Ultrices Rd.|Hamburg|611151|Hamburg|Cameroon
Honorato|sed.facilisis.vitae@semvitae.co.uk|01 99 35 35 54|087201208|In Tempus Eu Limited|Appartement 785-3155 Luctus. Av.|Berlin|40611|BE|Congo, the Democratic Republic of the
Philip|Nullam.suscipit.est@orciPhasellus.org|06 58 79 20 06|379640311|Integer Eu Lacus Corporation|Appartement 894-1409 Libero. Rue|Tilburg|Z4858|Noord Brabant|Austria
Paki|eleifend.nec.malesuada@luctusvulputate.net|09 45 22 88 60|893484428|Mollis Vitae Ltd|CP 758, 8122 Id Chemin|Bremen|Z5499|HB|Gambia
Reuben|Nunc@mollis.com|02 34 75 79 58|816120760|Vulputate Risus Associates|Appartement 556-2773 Nulla. Chemin|Certaldo|TC2 7BV|Toscana|Cambodia
August|sit.amet.consectetuer@rutrumjustoPraesent.edu|01 25 74 09 37|808836308|Sed Nunc Est PC|CP 568, 1045 Mauris Avenue|Funtua|295730|KT|Gibraltar
Berk|tristique.aliquet@mollis.com|07 76 06 39 31|852084508|Quisque Ac Libero Inc.|Appartement 303-4669 Vitae, Av.|Lambayeque|5645|Lambayeque|Grenada
Lester|vel.mauris@semutdolor.ca|02 82 46 03 59|644176877|Magna Phasellus Dolor Limited|Appartement 924-3644 Sapien. Chemin|Mexico City|7006|CDM|Turks and Caicos Islands
Ivor|Donec@senectusetnetus.org|09 80 66 04 74|286072921|Adipiscing Associates|775-1319 Nunc Ave|Vienna|74495|Vienna|Eritrea
Amir|sem@mollisPhasellus.ca|07 56 04 37 16|361070576|Purus Corporation|CP 559, 7289 Magna. Av.|Essex|650060|ON|Mauritania
August|rutrum@arcuiaculisenim.com|05 70 44 89 75|674808407|Feugiat Company|5135 Gravida Ave|Itajaí|GA7U 1ZN|Santa Catarina|Palestine, State of
Drake|nulla.Donec.non@justo.net|04 51 34 31 90|116720376|Justo Nec Corp.|341 Id Rue|Antakya|49758|Hatay|Monaco
Hayes|eu.augue.porttitor@eleifendnon.org|08 41 06 65 98|852487420|Blandit Congue In LLC|581-1861 Ut Av.|Bello|7880|Antioquia|British Indian Ocean Territory
Palmer|vel.pede.blandit@Nullaeuneque.net|02 93 85 61 84|393732201|Aenean Massa Limited|736-6133 In Route|Tlaquepaque|46321|Jal|Åland Islands
Malachi|diam.Pellentesque.habitant@sitametdapibus.ca|01 42 57 07 14|876169137|Rutrum Urna Company|2472 Elit. Chemin|Toruń|25108|KP|Ukraine
Ryder|in.lobortis@Aliquam.com|09 67 06 94 25|779423557|Eu Ligula Aenean Ltd|837 Nam Route|Melbourne|55540|VIC|Antarctica
Ferris|magna.tellus.faucibus@urnaNullam.com|03 75 94 86 73|426552758|Erat Volutpat Nulla LLP|Appartement 506-879 Penatibus Rue|Manukau|50877|NI|Madagascar
Knox|posuere.cubilia.Curae@Crassedleo.net|07 96 64 42 78|249598582|Odio Phasellus At Industries|871 Dapibus Av.|Suwon|2256|Gye|Cameroon
Nehru|risus.a.ultricies@placerat.com|02 91 21 67 20|417821709|Id Industries|646-798 Aliquam Av.|Castanhal|50-058|Pará|Liechtenstein
Alvin|sit.amet.risus@dolorFusce.net|07 06 10 64 79|626602379|Ac Corp.|1252 Sed Ave|Mojokerto|43263|East Java|Taiwan
Griffin|sagittis.felis@Proinnislsem.com|08 11 72 41 70|567799432|Ac Mi Eleifend PC|CP 120, 632 Dui Avenue|Sudhanoti|22279|AK|Poland
Amery|ipsum@Quisqueaclibero.net|09 84 50 17 72|511409849|Vitae Company|7872 Elit, Chemin|San Pedro|11511|San José|Saint Vincent and The Grenadines
Camden|nec@antedictum.co.uk|02 18 39 73 01|581578903|Fringilla PC|8000 Posuere Impasse|Feilding|07-965|NI|Mozambique
Ivan|Donec.vitae@nequenonquam.edu|04 58 20 09 50|767040991|Luctus Lobortis Company|CP 538, 9238 Mollis. Ave|Cedar Rapids|22-630|IA|Saint Helena, Ascension and Tristan da Cunha
Otto|leo@ornareliberoat.net|08 80 71 99 34|997113972|Dictum Placerat Corp.|CP 788, 8653 Lacus, Rue|Borås|1462|O|Tunisia
Armando|nonummy.ipsum@Nunc.edu|03 53 01 70 59|928048958|Fusce Dolor Corp.|329-3332 Gravida Av.|Galway|3400|C|Madagascar
Hayes|sagittis@sedfacilisisvitae.org|07 50 14 14 18|478432545|Cursus Purus PC|CP 954, 2759 Id, Route|Mâcon|4851|BO|Ukraine
Brennan|Sed.auctor@estac.com|07 53 30 27 95|004301016|Mauris Erat Eget Foundation|CP 192, 1944 Proin Av.|Groenlo|15048|Gelderland|Bhutan
Elijah|quis@Aliquamrutrumlorem.ca|02 53 68 15 68|887986834|Duis Sit Inc.|5711 Fermentum Rue|Murcia|47190|Murcia|Greenland
Vance|parturient.montes.nascetur@id.edu|04 22 28 90 29|982315434|Praesent Luctus Corporation|6216 Enim Rue|Flushing|897363|Zl|Costa Rica
Declan|tellus@duinec.net|06 87 12 04 59|986307429|Nisl Nulla LLP|846-3838 Sodales Chemin|Iquitos|5909|Loreto|Paraguay
Finn|Sed@nibhDonecest.com|04 78 61 78 53|187933478|Eu LLC|697-9859 Diam. Rd.|East Gwillimbury|2671|Ontario|Cape Verde
Len|lacus.varius@odio.net|05 49 51 01 82|059916072|Vestibulum Nec Associates|3380 Odio, Route|Thunder Bay|1077 WA|Ontario|Qatar
Hedley|dictum@liberoProinmi.net|09 33 36 10 28|371832692|Id Ante Company|Appartement 993-758 Aliquet Impasse|Te Puke|64720|NI|Tajikistan
Eagan|sagittis.lobortis.mauris@NuncmaurisMorbi.net|04 51 66 32 70|215493271|Orci Donec Company|4826 Fusce Rd.|Semarang|4370|Central Java|Bolivia
Lars|euismod.urna.Nullam@Nullaeu.net|08 83 09 84 15|164555625|Mollis Nec Cursus Industries|4471 Dictum Avenue|Sacramento|11382|California|Bahamas
Harper|et.tristique@hendrerit.com|01 03 78 83 44|890183593|Luctus LLP|2741 In Avenue|Fresno|846429|CA|Kuwait
Randall|lectus@diam.co.uk|05 39 80 42 97|368714317|Eget Nisi PC|Appartement 447-3742 Pulvinar Impasse|Blenheim|06500|SI|Tajikistan
Vladimir|ac@consequatpurusMaecenas.net|08 91 28 60 87|075079509|Aliquam Auctor Consulting|705-8153 Molestie Route|Berlin|98-462|BE|France
Murphy|magna.nec@tellusid.net|09 95 44 37 06|820855153|Amet Consectetuer Adipiscing Institute|Appartement 960-9932 Tempor Av.|Christchurch|9043|South Island|Nicaragua
Keith|Nullam@Nunccommodo.net|06 99 11 90 48|495780165|Suspendisse Dui LLC|Appartement 639-9921 Nisl Av.|Bünyan|71416|Kay|Kazakhstan
Gil|Proin@malesuadaid.net|01 84 36 32 63|096087341|Sem Associates|852-6032 Interdum. Chemin|Lions Bay|73970-55011|BC|Nauru
Reuben|neque.sed@elitpellentesque.com|02 17 94 89 58|461456931|Diam Proin Dolor LLC|875-8229 Purus Avenue|Dover|967263|DE|Bangladesh
Chandler|Suspendisse.aliquet.sem@adipiscinglobortisrisus.co.uk|01 67 97 07 23|287237234|Massa Mauris Vestibulum LLC|CP 640, 6398 Cras Av.|Indianapolis|0567|IN|Jamaica
Salvador|a@nequenon.net|05 97 96 64 75|965851124|Parturient Montes Nascetur LLP|Appartement 790-1998 Orci Impasse|Hamburg|71747-00485|HH|Netherlands
Demetrius|auctor.ullamcorper.nisl@Uttincidunt.co.uk|05 42 74 19 87|145064127|Arcu Imperdiet Consulting|6591 Suspendisse Impasse|Flushing|17960|Zl|Benin
Nathan|lacinia.mattis@Praesent.edu|02 33 54 47 66|327114765|Lacus Nulla Tincidunt LLP|8262 Vulputate Route|Gravataí|7719|Rio Grande do Sul|Sri Lanka
Buckminster|eu@risus.net|07 62 54 52 23|928984087|Nibh Phasellus Nulla Associates|CP 357, 4329 Tellus. Impasse|Almelo|Z2133|Ov|Dominica
David|pellentesque@arcu.edu|08 09 01 68 50|546315086|Metus In Nec Limited|Appartement 556-8115 Non Chemin|Wandre|6488|LU|South Africa
Brendan|Cras.dictum.ultricies@in.co.uk|09 25 35 58 56|601888472|Commodo Ltd|121-5387 Ut Avenue|Meridian|63106|Idaho|Sierra Leone
Amal|elit@vitaeposuereat.ca|03 27 95 36 74|138821855|Vestibulum Lorem Sit Incorporated|Appartement 748-1347 Placerat Rd.|Surabaya|E4X 7J6|East Java|Svalbard and Jan Mayen Islands
Quamar|Lorem.ipsum@ac.org|01 12 74 23 39|895793032|Cras Convallis Convallis PC|Appartement 561-7842 Nullam Chemin|Blue Mountains|76203|New South Wales|Niger
Tanner|nisl@Proinnisl.ca|06 29 45 09 38|603319567|Consequat Purus Limited|5309 Ornare, Rue|Desamparados|718827|SJ|Guinea-Bissau
Clayton|vitae@Donecnonjusto.co.uk|06 15 56 26 76|366810745|Quam Pellentesque Consulting|228-5442 Erat Route|Caledon|388371|Ontario|Trinidad and Tobago
Moses|Curabitur.massa@augueeu.co.uk|05 44 10 55 13|751989203|Ac Corp.|CP 661, 7235 Luctus Av.|Shebekino|38752-933|Belgorod Oblast|Saint Lucia
Jonas|Nunc@gravidaPraesent.ca|08 71 11 09 61|222495541|Nec Leo Foundation|CP 832, 8052 Cursus. Route|Cannalonga|13054|CAM|Hungary
Omar|sit.amet.massa@blanditat.edu|04 45 05 24 04|460644891|Tellus Phasellus LLC|CP 975, 3045 Lobortis Rue|Rankweil|14982|Vorarlberg|Moldova
Conan|risus@Vivamuseuismod.co.uk|09 24 07 53 96|035145713|Ut Pharetra Sed Associates|Appartement 612-7911 Elit, Chemin|María Elena|559382|Antofagasta|Djibouti
Gil|mollis.non.cursus@liberoProinsed.ca|08 21 89 02 84|066727421|Leo Limited|119-617 Pharetra Rd.|Piotrków Trybunalski|287276|LD|Netherlands
Jelani|nulla.Integer.urna@Maecenasornareegestas.ca|07 58 47 29 40|652353665|Augue Ltd|3874 Libero Impasse|Stratford|75539|PE|Reunion
Myles|cursus@nonlobortis.org|02 97 44 17 67|270942634|Eu Dui Cum Ltd|CP 225, 9694 Dui, Rd.|Nanterre|676600|IL|Saint Martin
Derek|Maecenas.mi@fames.com|04 59 30 90 11|120304035|Lectus Associates|Appartement 676-8780 Elit Route|Monclova|78925|Coa|Spain
Abel|arcu.Morbi.sit@vitae.net|01 10 54 94 22|436108013|Convallis Est LLP|703-5784 Ac Chemin|Magangué|36632|Bolívar|Congo, the Democratic Republic of the
Igor|ut@sedconsequatauctor.co.uk|06 38 79 58 86|149742884|Risus Company|CP 130, 4514 Nec, Rd.|Oviedo|01238|AS|Iceland
Declan|neque.Nullam@nec.edu|03 24 74 35 10|870678000|Tellus Aenean Egestas Corporation|6915 Non, Av.|San Pedro|10814|SJ|Saint Barthélemy
Armando|quis.accumsan@nislQuisque.org|06 86 10 17 12|360946248|Mauris Id Institute|Appartement 657-8465 Luctus Chemin|Romford|1908|ES|Paraguay
Gannon|nunc@risusDuisa.com|03 78 10 37 71|099548042|Aptent Taciti Sociosqu Limited|687-8084 Ultrices Rd.|Berlin|11491|Berlin|Guadeloupe
Nero|enim@musProinvel.ca|07 08 05 65 42|968197533|Lorem Corp.|CP 732, 3706 Nullam Route|Baubau|50201|Southeast Sulawesi|Bahrain
Zahir|arcu@felisegetvarius.org|08 32 15 91 83|053608626|Eget LLP|Appartement 898-4238 Suscipit Avenue|Guarulhos|G7H 3W6|SP|French Southern Territories